[{"OBJECT_NAME":"ONEWEB-0425","OBJECT_ID":"2022-012G","EPOCH":"2025-09-02T20:24:59.425920","MEAN_MOTION":13.10375386,"ECCENTRICITY":0.00020376,"INCLINATION":87.8756,"RA_OF_ASC_NODE":93.5655,"ARG_OF_PERICENTER":84.9534,"MEAN_ANOMALY":275.1825,"EPHEMERIS_TYPE":0,"CLASSIFICATION_TYPE":"U","NORAD_CAT_ID":51628,"ELEMENT_SET_NO":999,"REV_AT_EPOCH":17169,"BSTAR":-0.0013133289,"MEAN_MOTION_DOT":-4.46e-6,"MEAN_MOTION_DDOT":0},{"OBJECT_NAME":"ONEWEB-0428","OBJECT_ID":"2022-012H","EPOCH":"2025-09-02T19:56:17.975904","MEAN_MOTION":13.10370145,"ECCENTRICITY":0.00015157,"INCLINATION":87.8747,"RA_OF_ASC_NODE":93.5906,"ARG_OF_PERICENTER":79.2337,"MEAN_ANOMALY":280.8961,"EPHEMERIS_TYPE":0,"CLASSIFICATION_TYPE":"U","NORAD_CAT_ID":51629,"ELEMENT_SET_NO":999,"REV_AT_EPOCH":17165,"BSTAR":-0.0016873794,"MEAN_MOTION_DOT":-5.76e-6,"MEAN_MOTION_DDOT":0},{"OBJECT_NAME":"ONEWEB-0431","OBJECT_ID":"2022-012J","EPOCH":"2025-09-02T21:03:01.623168","MEAN_MOTION":13.10380606,"ECCENTRICITY":9.783e-5,"INCLINATION":87.8756,"RA_OF_ASC_NODE":93.553,"ARG_OF_PERICENTER":93.8236,"MEAN_ANOMALY":266.3004,"EPHEMERIS_TYPE":0,"CLASSIFICATION_TYPE":"U","NORAD_CAT_ID":51630,"ELEMENT_SET_NO":999,"REV_AT_EPOCH":17171,"BSTAR":-0.00022823652,"MEAN_MOTION_DOT":-6.7e-7,"MEAN_MOTION_DDOT":0},{"OBJECT_NAME":"ONEWEB-0434","OBJECT_ID":"2022-012K","EPOCH":"2025-09-02T20:29:47.854176","MEAN_MOTION":13.10376322,"ECCENTRICITY":0.00023118,"INCLINATION":87.8757,"RA_OF_ASC_NODE":93.6001,"ARG_OF_PERICENTER":84.5239,"MEAN_ANOMALY":275.6152,"EPHEMERIS_TYPE":0,"CLASSIFICATION_TYPE":"U","NORAD_CAT_ID":51631,"ELEMENT_SET_NO":999,"REV_AT_EPOCH":17169,"BSTAR":-0.00028089472,"MEAN_MOTION_DOT":-8.5e-7,"MEAN_MOTION_DDOT":0},{"OBJECT_NAME":"ONEWEB-0435","OBJECT_ID":"2022-012L","EPOCH":"2025-09-02T22:31:41.557152","MEAN_MOTION":13.10377381,"ECCENTRICITY":0.00015385,"INCLINATION":87.8751,"RA_OF_ASC_NODE":93.5749,"ARG_OF_PERICENTER":69.4096,"MEAN_ANOMALY":290.7196,"EPHEMERIS_TYPE":0,"CLASSIFICATION_TYPE":"U","NORAD_CAT_ID":51632,"ELEMENT_SET_NO":999,"REV_AT_EPOCH":17169,"BSTAR":0.00093861723,"MEAN_MOTION_DOT":3.4e-6,"MEAN_MOTION_DDOT":0},{"OBJECT_NAME":"ONEWEB-0436","OBJECT_ID":"2022-012M","EPOCH":"2025-09-02T22:41:46.777920","MEAN_MOTION":13.17651227,"ECCENTRICITY":0.0001524,"INCLINATION":87.9027,"RA_OF_ASC_NODE":62.9805,"ARG_OF_PERICENTER":86.3188,"MEAN_ANOMALY":273.8117,"EPHEMERIS_TYPE":0,"CLASSIFICATION_TYPE":"U","NORAD_CAT_ID":51633,"ELEMENT_SET_NO":999,"REV_AT_EPOCH":17585,"BSTAR":0.00055476495,"MEAN_MOTION_DOT":2.28e-6,"MEAN_MOTION_DDOT":0},{"OBJECT_NAME":"ONEWEB-0438","OBJECT_ID":"2022-012N","EPOCH":"2025-09-02T20:17:48.640704","MEAN_MOTION":13.10373094,"ECCENTRICITY":0.00018777,"INCLINATION":87.8757,"RA_OF_ASC_NODE":93.5947,"ARG_OF_PERICENTER":84.7076,"MEAN_ANOMALY":275.4266,"EPHEMERIS_TYPE":0,"CLASSIFICATION_TYPE":"U","NORAD_CAT_ID":51634,"ELEMENT_SET_NO":999,"REV_AT_EPOCH":17171,"BSTAR":-0.0015837437,"MEAN_MOTION_DOT":-5.4e-6,"MEAN_MOTION_DDOT":0},{"OBJECT_NAME":"ONEWEB-0439","OBJECT_ID":"2022-012P","EPOCH":"2025-09-02T20:22:35.592384","MEAN_MOTION":13.10373715,"ECCENTRICITY":0.00017304,"INCLINATION":87.8757,"RA_OF_ASC_NODE":93.5823,"ARG_OF_PERICENTER":81.2769,"MEAN_ANOMALY":278.8554,"EPHEMERIS_TYPE":0,"CLASSIFICATION_TYPE":"U","NORAD_CAT_ID":51635,"ELEMENT_SET_NO":999,"REV_AT_EPOCH":17169,"BSTAR":-0.00084887654,"MEAN_MOTION_DOT":-2.84e-6,"MEAN_MOTION_DDOT":0},{"OBJECT_NAME":"ONEWEB-0442","OBJECT_ID":"2022-012Q","EPOCH":"2025-09-02T22:30:51.432192","MEAN_MOTION":13.17648555,"ECCENTRICITY":0.00022616,"INCLINATION":87.9029,"RA_OF_ASC_NODE":63.0361,"ARG_OF_PERICENTER":100.2358,"MEAN_ANOMALY":259.9029,"EPHEMERIS_TYPE":0,"CLASSIFICATION_TYPE":"U","NORAD_CAT_ID":51636,"ELEMENT_SET_NO":999,"REV_AT_EPOCH":17584,"BSTAR":0.00032543313,"MEAN_MOTION_DOT":1.39e-6,"MEAN_MOTION_DDOT":0},{"OBJECT_NAME":"ONEWEB-0443","OBJECT_ID":"2022-012R","EPOCH":"2025-09-02T21:09:26.886816","MEAN_MOTION":13.1764932,"ECCENTRICITY":0.00020078,"INCLINATION":87.9022,"RA_OF_ASC_NODE":63.0551,"ARG_OF_PERICENTER":84.1083,"MEAN_ANOMALY":276.0277,"EPHEMERIS_TYPE":0,"CLASSIFICATION_TYPE":"U","NORAD_CAT_ID":51637,"ELEMENT_SET_NO":999,"REV_AT_EPOCH":17588,"BSTAR":0.00032356782,"MEAN_MOTION_DOT":1.39e-6,"MEAN_MOTION_DDOT":0},{"OBJECT_NAME":"ONEWEB-0444","OBJECT_ID":"2022-012S","EPOCH":"2025-09-02T20:08:16.185408","MEAN_MOTION":13.10372882,"ECCENTRICITY":0.00016745,"INCLINATION":87.875,"RA_OF_ASC_NODE":93.5843,"ARG_OF_PERICENTER":78.5525,"MEAN_ANOMALY":281.5791,"EPHEMERIS_TYPE":0,"CLASSIFICATION_TYPE":"U","NORAD_CAT_ID":51638,"ELEMENT_SET_NO":999,"REV_AT_EPOCH":17170,"BSTAR":-0.0018874073,"MEAN_MOTION_DOT":-6.46e-6,"MEAN_MOTION_DDOT":0},{"OBJECT_NAME":"ONEWEB-0445","OBJECT_ID":"2022-012T","EPOCH":"2025-09-02T20:39:22.044384","MEAN_MOTION":13.10375296,"ECCENTRICITY":0.00016564,"INCLINATION":87.8766,"RA_OF_ASC_NODE":93.5325,"ARG_OF_PERICENTER":89.0977,"MEAN_ANOMALY":271.034,"EPHEMERIS_TYPE":0,"CLASSIFICATION_TYPE":"U","NORAD_CAT_ID":51639,"ELEMENT_SET_NO":999,"REV_AT_EPOCH":17171,"BSTAR":0.00070176028,"MEAN_MOTION_DOT":2.58e-6,"MEAN_MOTION_DDOT":0},{"OBJECT_NAME":"ONEWEB-0446","OBJECT_ID":"2022-012U","EPOCH":"2025-09-02T20:05:51.399744","MEAN_MOTION":13.10371553,"ECCENTRICITY":0.00015837,"INCLINATION":87.875,"RA_OF_ASC_NODE":93.5999,"ARG_OF_PERICENTER":90.9197,"MEAN_ANOMALY":269.2112,"EPHEMERIS_TYPE":0,"CLASSIFICATION_TYPE":"U","NORAD_CAT_ID":51640,"ELEMENT_SET_NO":999,"REV_AT_EPOCH":17169,"BSTAR":-0.0019896895,"MEAN_MOTION_DOT":-6.82e-6,"MEAN_MOTION_DDOT":0},{"OBJECT_NAME":"ONEWEB-0448","OBJECT_ID":"2022-012V","EPOCH":"2025-09-02T20:13:02.807904","MEAN_MOTION":13.10374813,"ECCENTRICITY":0.00016915,"INCLINATION":87.8755,"RA_OF_ASC_NODE":93.5989,"ARG_OF_PERICENTER":80.5719,"MEAN_ANOMALY":279.56,"EPHEMERIS_TYPE":0,"CLASSIFICATION_TYPE":"U","NORAD_CAT_ID":51641,"ELEMENT_SET_NO":999,"REV_AT_EPOCH":17166,"BSTAR":-0.0016153565,"MEAN_MOTION_DOT":-5.51e-6,"MEAN_MOTION_DDOT":0},{"OBJECT_NAME":"ONEWEB-0449","OBJECT_ID":"2022-012W","EPOCH":"2025-09-02T20:20:13.855776","MEAN_MOTION":13.10375019,"ECCENTRICITY":0.00021702,"INCLINATION":87.8753,"RA_OF_ASC_NODE":93.5692,"ARG_OF_PERICENTER":84.3747,"MEAN_ANOMALY":275.7628,"EPHEMERIS_TYPE":0,"CLASSIFICATION_TYPE":"U","NORAD_CAT_ID":51642,"ELEMENT_SET_NO":999,"REV_AT_EPOCH":17167,"BSTAR":-0.0013627782,"MEAN_MOTION_DOT":-4.63e-6,"MEAN_MOTION_DDOT":0},{"OBJECT_NAME":"ONEWEB-0451","OBJECT_ID":"2022-012X","EPOCH":"2025-09-02T22:36:55.020672","MEAN_MOTION":13.17648202,"ECCENTRICITY":0.00018941,"INCLINATION":87.9034,"RA_OF_ASC_NODE":62.9729,"ARG_OF_PERICENTER":90.4696,"MEAN_ANOMALY":269.6652,"EPHEMERIS_TYPE":0,"CLASSIFICATION_TYPE":"U","NORAD_CAT_ID":51643,"ELEMENT_SET_NO":999,"REV_AT_EPOCH":17583,"BSTAR":0.00036468252,"MEAN_MOTION_DOT":1.54e-6,"MEAN_MOTION_DDOT":0},{"OBJECT_NAME":"ONEWEB-0452","OBJECT_ID":"2022-012Y","EPOCH":"2025-09-02T22:34:30.604800","MEAN_MOTION":13.17650306,"ECCENTRICITY":0.00019759,"INCLINATION":87.9029,"RA_OF_ASC_NODE":63.0364,"ARG_OF_PERICENTER":86.0837,"MEAN_ANOMALY":274.0521,"EPHEMERIS_TYPE":0,"CLASSIFICATION_TYPE":"U","NORAD_CAT_ID":51644,"ELEMENT_SET_NO":999,"REV_AT_EPOCH":17584,"BSTAR":0.00036040568,"MEAN_MOTION_DOT":1.53e-6,"MEAN_MOTION_DDOT":0}]
