ONEWEB-0425             
1 51628U 22012G   25245.85068780 -.00000446  00000+0 -13133-2 0  9997
2 51628  87.8756  93.5655 0002037  84.9534 275.1825 13.10375386171694
ONEWEB-0428             
1 51629U 22012H   25245.83076361 -.00000576  00000+0 -16874-2 0  9999
2 51629  87.8747  93.5906 0001515  79.2337 280.8961 13.10370145171650
ONEWEB-0431             
1 51630U 22012J   25245.87710212 -.00000067  00000+0 -22824-3 0  9993
2 51630  87.8756  93.5530 0000978  93.8236 266.3004 13.10380606171714
ONEWEB-0434             
1 51631U 22012K   25245.85402609 -.00000085  00000+0 -28089-3 0  9999
2 51631  87.8757  93.6001 0002311  84.5239 275.6152 13.10376322171697
ONEWEB-0435             
1 51632U 22012L   25245.93867543  .00000340  00000+0  93862-3 0  9994
2 51632  87.8751  93.5749 0001538  69.4096 290.7196 13.10377381171695
ONEWEB-0436             
1 51633U 22012M   25245.94568030  .00000228  00000+0  55476-3 0  9999
2 51633  87.9027  62.9805 0001524  86.3188 273.8117 13.17651227175859
ONEWEB-0438             
1 51634U 22012N   25245.84570186 -.00000540  00000+0 -15837-2 0  9999
2 51634  87.8757  93.5947 0001877  84.7076 275.4266 13.10373094171715
ONEWEB-0439             
1 51635U 22012P   25245.84902306 -.00000284  00000+0 -84888-3 0  9991
2 51635  87.8757  93.5823 0001730  81.2769 278.8554 13.10373715171692
ONEWEB-0442             
1 51636U 22012Q   25245.93809528  .00000139  00000+0  32543-3 0  9992
2 51636  87.9029  63.0361 0002261 100.2358 259.9029 13.17648555175843
ONEWEB-0443             
1 51637U 22012R   25245.88156119  .00000139  00000+0  32357-3 0  9991
2 51637  87.9022  63.0551 0002007  84.1083 276.0277 13.17649320175881
ONEWEB-0444             
1 51638U 22012S   25245.83907622 -.00000646  00000+0 -18874-2 0  9992
2 51638  87.8750  93.5843 0001674  78.5525 281.5791 13.10372882171706
ONEWEB-0445             
1 51639U 22012T   25245.86067181  .00000258  00000+0  70176-3 0  9994
2 51639  87.8766  93.5325 0001656  89.0977 271.0340 13.10375296171714
ONEWEB-0446             
1 51640U 22012U   25245.83740046 -.00000682  00000+0 -19897-2 0  9996
2 51640  87.8750  93.5999 0001583  90.9197 269.2112 13.10371553171695
ONEWEB-0448             
1 51641U 22012V   25245.84239361 -.00000551  00000+0 -16154-2 0  9999
2 51641  87.8755  93.5989 0001691  80.5719 279.5600 13.10374813171660
ONEWEB-0449             
1 51642U 22012W   25245.84738259 -.00000463  00000+0 -13628-2 0  9995
2 51642  87.8753  93.5692 0002170  84.3747 275.7628 13.10375019171674
ONEWEB-0451             
1 51643U 22012X   25245.94230348  .00000154  00000+0  36468-3 0  9996
2 51643  87.9034  62.9729 0001894  90.4696 269.6652 13.17648202175837
ONEWEB-0452             
1 51644U 22012Y   25245.94063200  .00000153  00000+0  36041-3 0  9994
2 51644  87.9029  63.0364 0001975  86.0837 274.0521 13.17650306175841
